CTC1_L_00221016-03
1 20480U 23080WX  26070.40833333  .00000000  00000+0  00000-0 0  9998
2 20480  50.0000 180.0000 0000000   0.0000   0.0000 13.29142335    14
CTC1_L_00221016-04
1 20481U 23389RG  26070.40833333  .00000000  00000+0  00000-0 0  9991
2 20481  50.0000 180.0000 0000000   0.0000  90.0000 13.29142335    14
CTC1_L_00221017-01
1 20482U 25161NW  26070.40833333  .00000000  00000+0  00000-0 0  9992
2 20482  50.0000 192.0000 0000000   0.0000 192.0000 13.29142335    11
CTC1_L_00221017-02
1 20483U 22507TT  26070.40833333  .00000000  00000+0  00000-0 0  9994
2 20483  50.0000 192.0000 0000000   0.0000 282.0000 13.29142335    12
CTC1_L_00221017-03
1 20484U 25040NZ  26070.40833333  .00000000  00000+0  00000-0 0  9990
2 20484  50.0000 192.0000 0000000   0.0000  12.0000 13.29142335    14
CTC1_L_00221017-04
1 20485U 26092ZA  26070.40833333  .00000000  00000+0  00000-0 0  9999
2 20485  50.0000 192.0000 0000000   0.0000 102.0000 13.29142335    15
CTC1_L_00221018-01
1 20486U 25288JU  26070.40833333  .00000000  00000+0  00000-0 0  9996
2 20486  50.0000 204.0000 0000000   0.0000 204.0000 13.29142335    13
CTC1_L_00221018-02
1 20487U 26805I   26070.40833333  .00000000  00000+0  00000-0 0  9993
2 20487  50.0000 204.0000 0000000   0.0000 294.0000 13.29142335    13
CTC1_L_00221018-03
1 20488U 26041BM  26070.40833333  .00000000  00000+0  00000-0 0  9996
2 20488  50.0000 204.0000 0000000   0.0000  24.0000 13.29142335    15
CTC1_L_00221018-04
1 20489U 24027CV  26070.40833333  .00000000  00000+0  00000-0 0  9999
2 20489  50.0000 204.0000 0000000   0.0000 114.0000 13.29142335    16
CTC1_L_00221019-01
1 20490U 25292YC  26070.40833333  .00000000  00000+0  00000-0 0  9996
2 20490  50.0000 216.0000 0000000   0.0000 216.0000 13.29142335    14
CTC1_L_00221019-02
1 20491U 25045MI  26070.40833333  .00000000  00000+0  00000-0 0  9993
2 20491  50.0000 216.0000 0000000   0.0000 306.0000 13.29142335    15
CTC1_L_00221019-03
1 20492U 26372JB  26070.40833333  .00000000  00000+0  00000-0 0  9998
2 20492  50.0000 216.0000 0000000   0.0000  36.0000 13.29142335    16
CTC1_L_00221019-04
1 20493U 25382DR  26070.40833333  .00000000  00000+0  00000-0 0  9999
2 20493  50.0000 216.0000 0000000   0.0000 126.0000 13.29142335    17
CTC1_L_00221020-01
1 20494U 22717FG  26070.40833333  .00000000  00000+0  00000-0 0  9999
2 20494  50.0000 228.0000 0000000   0.0000 228.0000 13.29142335    14
CTC1_L_00221020-02
1 20495U 23675OS  26070.40833333  .00000000  00000+0  00000-0 0  9994
2 20495  50.0000 228.0000 0000000   0.0000 318.0000 13.29142335    15
CTC1_L_00221020-03
1 20496U 23819MV  26070.40833333  .00000000  00000+0  00000-0 0  9995
2 20496  50.0000 228.0000 0000000   0.0000  48.0000 13.29142335    16
CTC1_L_00221020-04
1 20497U 22088VD  26070.40833333  .00000000  00000+0  00000-0 0  9993
2 20497  50.0000 228.0000 0000000   0.0000 138.0000 13.29142335    17
CTC1_L_00221021-01
1 20498U 25260XN  26070.40833333  .00000000  00000+0  00000-0 0  9999
2 20498  50.0000 240.0000 0000000   0.0000 240.0000 13.29142335    16
CTC1_L_00221021-02
1 20499U 22152WP  26070.40833333  .00000000  00000+0  00000-0 0  9997
2 20499  50.0000 240.0000 0000000   0.0000 330.0000 13.29142335    17
CTC1_L_00221021-03
1 20500U 25762XN  26070.40833333  .00000000  00000+0  00000-0 0  9990
2 20500  50.0000 240.0000 0000000   0.0000  60.0000 13.29142335    10
CTC1_L_00221021-04
1 20501U 22942BT  26070.40833333  .00000000  00000+0  00000-0 0  9998
2 20501  50.0000 240.0000 0000000   0.0000 150.0000 13.29142335    11
CTC1_L_00221022-01
1 20502U 23085YV  26070.40833333  .00000000  00000+0  00000-0 0  9998
2 20502  50.0000 252.0000 0000000   0.0000 252.0000 13.29142335    18
CTC1_L_00221022-02
1 20503U 24748BZ  26070.40833333  .00000000  00000+0  00000-0 0  9996
2 20503  50.0000 252.0000 0000000   0.0000 342.0000 13.29142335    19
CTC1_L_00221022-03
1 20504U 24491PI  26070.40833333  .00000000  00000+0  00000-0 0  9992
2 20504  50.0000 252.0000 0000000   0.0000  72.0000 13.29142335    10
CTC1_L_00221022-04
1 20505U 25830XH  26070.40833333  .00000000  00000+0  00000-0 0  9991
2 20505  50.0000 252.0000 0000000   0.0000 162.0000 13.29142335    11
CTC1_L_00221023-01
1 20506U 22584XE  26070.40833333  .00000000  00000+0  00000-0 0  9995
2 20506  50.0000 264.0000 0000000   0.0000 264.0000 13.29142335    18
CTC1_L_00221023-02
1 20507U 25738JY  26070.40833333  .00000000  00000+0  00000-0 0  9990
2 20507  50.0000 264.0000 0000000   0.0000 354.0000 13.29142335    19
CTC1_L_00221023-03
1 20508U 26620RR  26070.40833333  .00000000  00000+0  00000-0 0  9992
2 20508  50.0000 264.0000 0000000   0.0000  84.0000 13.29142335    10
CTC1_L_00221023-04
1 20509U 25830NV  26070.40833333  .00000000  00000+0  00000-0 0  9995
2 20509  50.0000 264.0000 0000000   0.0000 174.0000 13.29142335    11
CTC1_L_00221024-01
1 20510U 25223FT  26070.40833333  .00000000  00000+0  00000-0 0  9993
2 20510  50.0000 276.0000 0000000   0.0000 276.0000 13.29142335    19
CTC1_L_00221024-02
1 20511U 24353YT  26070.40833333  .00000000  00000+0  00000-0 0  9997
2 20511  50.0000 276.0000 0000000   0.0000   6.0000 13.29142335    11
CTC1_L_00221024-03
1 20512U 23511WB  26070.40833333  .00000000  00000+0  00000-0 0  9993
2 20512  50.0000 276.0000 0000000   0.0000  96.0000 13.29142335    11
CTC1_L_00221024-04
1 20513U 26620IS  26070.40833333  .00000000  00000+0  00000-0 0  9998
2 20513  50.0000 276.0000 0000000   0.0000 186.0000 13.29142335    12
CTC1_L_00221025-01
1 20514U 22401M   26070.40833333  .00000000  00000+0  00000-0 0  9992
2 20514  50.0000 288.0000 0000000   0.0000 288.0000 13.29142335    19
CTC1_L_00221025-02
1 20515U 23508PV  26070.40833333  .00000000  00000+0  00000-0 0  9992
2 20515  50.0000 288.0000 0000000   0.0000  18.0000 13.29142335    11
CTC1_L_00221025-03
1 20516U 23020EY  26070.40833333  .00000000  00000+0  00000-0 0  9992
2 20516  50.0000 288.0000 0000000   0.0000 108.0000 13.29142335    12
CTC1_L_00221025-04
1 20517U 26670AK  26070.40833333  .00000000  00000+0  00000-0 0  9997
2 20517  50.0000 288.0000 0000000   0.0000 198.0000 13.29142335    12
CTC1_L_00221026-01
1 20518U 22066MK  26070.40833333  .00000000  00000+0  00000-0 0  9993
2 20518  50.0000 300.0000 0000000   0.0000 300.0000 13.29142335    13
CTC1_L_00221026-02
1 20519U 25932QR  26070.40833333  .00000000  00000+0  00000-0 0  9999
2 20519  50.0000 300.0000 0000000   0.0000  30.0000 13.29142335    14
CTC1_L_00221026-03
1 20520U 23183Z   26070.40833333  .00000000  00000+0  00000-0 0  9997
2 20520  50.0000 300.0000 0000000   0.0000 120.0000 13.29142335    16
CTC1_L_00221026-04
1 20521U 23944VK  26070.40833333  .00000000  00000+0  00000-0 0  9993
2 20521  50.0000 300.0000 0000000   0.0000 210.0000 13.29142335    17
CTC1_L_00221027-01
1 20522U 23905TP  26070.40833333  .00000000  00000+0  00000-0 0  9991
2 20522  50.0000 312.0000 0000000   0.0000 312.0000 13.29142335    14
CTC1_L_00221027-02
1 20523U 26337FG  26070.40833333  .00000000  00000+0  00000-0 0  9994
2 20523  50.0000 312.0000 0000000   0.0000  42.0000 13.29142335    15
CTC1_L_00221027-03
1 20524U 26994YY  26070.40833333  .00000000  00000+0  00000-0 0  9994
2 20524  50.0000 312.0000 0000000   0.0000 132.0000 13.29142335    16
CTC1_L_00221027-04
1 20525U 23298EW  26070.40833333  .00000000  00000+0  00000-0 0  9999
2 20525  50.0000 312.0000 0000000   0.0000 222.0000 13.29142335    17
CTC1_L_00221028-01
1 20526U 24677DY  26070.40833333  .00000000  00000+0  00000-0 0  9992
2 20526  50.0000 324.0000 0000000   0.0000 324.0000 13.29142335    14
CTC1_L_00221028-02
1 20527U 26269UC  26070.40833333  .00000000  00000+0  00000-0 0  9992
2 20527  50.0000 324.0000 0000000   0.0000  54.0000 13.29142335    15
CTC1_L_00221028-03
1 20528U 25966OZ  26070.40833333  .00000000  00000+0  00000-0 0  9996
2 20528  50.0000 324.0000 0000000   0.0000 144.0000 13.29142335    16
CTC1_L_00221028-04
1 20529U 22858AM  26070.40833333  .00000000  00000+0  00000-0 0  9994
2 20529  50.0000 324.0000 0000000   0.0000 234.0000 13.29142335    17
CTC1_L_00221029-01
1 20530U 23197FG  26070.40833333  .00000000  00000+0  00000-0 0  9993
2 20530  50.0000 336.0000 0000000   0.0000 336.0000 13.29142335    15
CTC1_L_00221029-02
1 20531U 26972WT  26070.40833333  .00000000  00000+0  00000-0 0  9998
2 20531  50.0000 336.0000 0000000   0.0000  66.0000 13.29142335    16
CTC1_L_00221029-03
1 20532U 24246ER  26070.40833333  .00000000  00000+0  00000-0 0  9991
2 20532  50.0000 336.0000 0000000   0.0000 156.0000 13.29142335    17
CTC1_L_00221029-04
1 20533U 26272VU  26070.40833333  .00000000  00000+0  00000-0 0  9993
2 20533  50.0000 336.0000 0000000   0.0000 246.0000 13.29142335    18
CTC1_L_00221030-01
1 20534U 25875JK  26070.40833333  .00000000  00000+0  00000-0 0  9992
2 20534  50.0000 348.0000 0000000   0.0000 348.0000 13.29142335    15
CTC1_L_00221030-02
1 20535U 25288VY  26070.40833333  .00000000  00000+0  00000-0 0  9991
2 20535  50.0000 348.0000 0000000   0.0000  78.0000 13.29142335    16
CTC1_L_00221030-03
1 20536U 22809ZL  26070.40833333  .00000000  00000+0  00000-0 0  9998
2 20536  50.0000 348.0000 0000000   0.0000 168.0000 13.29142335    17
CTC1_L_00221030-04
1 20537U 22715GY  26070.40833333  .00000000  00000+0  00000-0 0  9995
2 20537  50.0000 348.0000 0000000   0.0000 258.0000 13.29142335    18
